0 DMSP 5D-2 F11 DEB
1 35419U 91082CM  13281.29551834  .00008045  00000-0  30380-2 0  5016
2 35419 098.5130 217.6460 0072115 193.9811 321.7015 14.30110691481529
0 DMSP 5D-2 F11 DEB
1 35419U 91082CM  13283.32463978  .00012935  00000-0  48664-2 0  5021
2 35419 098.5123 219.6319 0072150 187.5055 329.1003 14.30161234481814
0 DMSP 5D-2 F11 DEB
1 35419U 91082CM  13286.60671416  .00010748  00000-0  40423-2 0  5040
2 35419 098.5114 222.8430 0072410 177.2174 308.1122 14.30219744482282
0 DMSP 5D-2 F11 DEB
1 35419U 91082CM  13287.65580127  .00014227  00000-0  53399-2 0  5057
2 35419 098.5124 223.8694 0072473 173.8425 309.9726 14.30241183482434
0 DMSP 5D-2 F11 DEB
1 35419U 91082CM  13289.04264009  .00014923  00000-0  55943-2 0  5061
2 35419 098.5126 225.2270 0072663 169.5686 250.9374 14.30284362482625
0 DMSP 5D-2 F11 DEB
1 35419U 91082CM  13290.02252580  .00014221  00000-0  53297-2 0  5074
2 35419 098.5127 226.1860 0072793 166.5190 256.5975 14.30303504482766
0 DMSP 5D-2 F11 DEB
1 35419U 91082CM  13291.29935628  .00013267  00000-0  49701-2 0  5080
2 35419 098.5129 227.4354 0072956 162.5345 351.4213 14.30336035482955
0 DMSP 5D-2 F11 DEB
1 35419U 91082CM  13292.62275466  .00012907  00000-0  48322-2 0  5094
2 35419 098.5128 228.7307 0073157 158.3726 326.2247 14.30366357483145
0 DMSP 5D-2 F11 DEB
1 35419U 91082CM  13294.77279287  .00016279  00000-0  60800-2 0  5100
2 35419 098.5126 230.8353 0073507 151.7011 237.9990 14.30414149483440
